1. select location_id,street_address,city,state_province,country_name
from locations
Natural join
countries;

2.  select last_name,department_id,department_name
from employees
left outer join 
departments
using(department_id)

3.select last_name,job_id,department_id,department_name
from employees
join departments
using(department_id)
join locations
using(location_id)
where city='Toronto';

4.  select e.last_name "Employee",e.employee_id "Emp#",m.last_name "Manager",m.employee_id "Manager#"
from employees e
join
employees m
on(e.manager_id = m.employee_id);

5. select e.last_name "Employee",e.employee_id "Emp#",m.last_name "Manager",m.employee_id "Manager#"
from employees e
left outer join
employees m
on(e.manager_id = m.employee_id)
order by e.employee_id;

6.  select e.last_name "Employee",e.department_id,c.last_name "Colleague"
from employees e
join employees c
on(e.department_id=c.department_id)
where e.employee_id<>c.employee_id
and e.department_id=&did;

7. select last_name,job_id,department_name,salary,grade
from employees e
join departments d
using(department_id)
join salgrade s
on(e.salary between s.losal and s.hisal);

8:  select e1.last_name emp,e1.hire_date empdate,e2.last_name manager,e2.hire_date mgr
from employees e1
join employees e2
on(e1.manager_id = e2.employee_id)
And e1.hire_date < e2.hire_date;

9.  select id,city,state
from states join station
on(stateid = state)
where city= 'Manchester'

10.
select id,city,state,locationid,locationname
from station join location
on(id=locationid)

 
11:
select stateid,statename,city,locationname
from states
join
station
on(stateid=state)
join location
on(id=locationid);

12: select custid,name,orderdate,shipdate,total
from customer
join ord
using(custid);

13: select custid,name,orderdate,shipdate,total
from customer
join ord
using(custid);

14: select name,orderdate,total
from customer
join ord
using(custid)
where name='JOCKSPORTS';
